NORAD_CAT_ID,OBJECT_NAME,OBJECT_TYPE,EPOCH,MEAN_MOTION,ECCENTRICITY,INCLINATION,RA_OF_ASC_NODE,ARG_OF_PERICENTER,MEAN_ANOMALY,BSTAR,MEAN_MOTION_DOT,MEAN_MOTION_DDOT,TLE_LINE0,TLE_LINE1,TLE_LINE2,SEMIMAJOR_AXIS,PERIOD,APOGEE,PERIGEE,DECAYED
49135.0,STARLINK-3073,PAYLOAD,2023-06-23 15:18:51,14.98338101,0.0003974,69.9986,230.7079,269.2903,90.7801,0.00010134,1.117e-05,0.0,0 STARLINK-3073,1 49135U 21082F   23174.63809379  .00001117  00000-0  10134-3 0  9999,2 49135  69.9986 230.7079 0003974 269.2903  90.7801 14.98338101 98676,6950.168,96.106,574.795,569.271,0.0
49135.0,STARLINK-3073,PAYLOAD,2023-06-24 04:07:56,14.98328499,0.0003909,69.9987,229.3611,269.1168,90.9543,4.1988e-05,4.08e-06,0.0,0 STARLINK-3073,1 49135U 21082F   23175.17218089  .00000408  00000-0  41988-4 0  9995,2 49135  69.9987 229.3611 0003909 269.1168  90.9543 14.98328499 98756,6950.198,96.107,574.779,569.346,0.0
49135.0,STARLINK-3073,PAYLOAD,2023-06-25 10:34:29,14.98334323,0.0003833,69.9987,226.1632,269.0702,91.0018,-1.1342e-05,-2.28e-06,0.0,0 STARLINK-3073,1 49135U 21082F   23176.44061704 -.00000228  00000-0 -11342-4 0  9999,2 49135  69.9987 226.1632 0003833 269.0702  91.0018 14.98334323 98946,6950.18,96.107,574.709,569.381,0.0
49135.0,STARLINK-3073,PAYLOAD,2023-06-26 12:12:38,14.9832748,0.0003803,69.9987,223.4706,267.7178,92.3545,-1.4927e-05,-2.71e-06,0.0,0 STARLINK-3073,1 49135U 21082F   23177.50878075 -.00000271  00000-0 -14927-4 0  9994,2 49135  69.9987 223.4706 0003803 267.7178  92.3545 14.98327480 99101,6950.201,96.107,574.709,569.423,0.0
49135.0,STARLINK-3073,PAYLOAD,2023-06-27 20:15:19,14.98330735,0.0004009,69.9984,220.1037,268.745,91.325,1.2362e-05,5.4e-07,0.0,0 STARLINK-3073,1 49135U 21082F   23178.84397806  .00000054  00000-0  12362-4 0  9998,2 49135  69.9984 220.1037 0004009 268.7450  91.3250 14.98330735 99303,6950.191,96.107,574.842,569.269,0.0
49135.0,STARLINK-3073,PAYLOAD,2023-06-29 04:18:01,14.98328919,0.0004049,69.9981,216.7369,268.3045,91.765,4.4583e-05,4.39e-06,0.0,0 STARLINK-3073,1 49135U 21082F   23180.17917876  .00000439  00000-0  44583-4 0  9999,2 49135  69.9981 216.7369 0004049 268.3045  91.7650 14.98328919 99500,6950.196,96.107,574.875,569.247,0.0
49135.0,STARLINK-3073,PAYLOAD,2023-07-01 09:10:27,14.9832712,0.0003945,69.9986,211.1825,266.4805,93.5903,-1.5704e-05,-2.81e-06,0.0,0 STARLINK-3073,1 49135U 21082F   23182.38225887 -.00000281  00000-0 -15704-4 0  9998,2 49135  69.9986 211.1825 0003945 266.4805  93.5903 14.98327120 99838,6950.202,96.107,574.809,569.325,0.0
49135.0,STARLINK-3073,PAYLOAD,2023-07-02 10:48:35,14.98332031,0.0004038,69.9984,208.4888,268.0793,91.9904,-1.5778e-05,-2.81e-06,0.0,0 STARLINK-3073,1 49135U 21082F   23183.45041515 -.00000281  00000-0 -15778-4 0  9992,2 49135  69.9984 208.4888 0004038 268.0793  91.9904 14.98332031 99999,6950.187,96.107,574.858,569.245,0.0
49135.0,STARLINK-3073,PAYLOAD,2023-07-03 10:50:36,14.98329021,0.0004121,69.9983,205.964,268.2144,91.8543,3.8639e-05,3.68e-06,0.0,0 STARLINK-3073,1 49135U 21082F   23184.45181531  .00000368  00000-0  38639-4 0  9991,2 49135  69.9983 205.9640 0004121 268.2144  91.8543 14.98329021100144,6950.196,96.107,574.925,569.197,0.0
49135.0,STARLINK-3073,PAYLOAD,2023-07-04 10:52:37,14.98330849,0.000411,69.9985,203.4392,267.554,92.5149,1.8615e-05,1.29e-06,0.0,0 STARLINK-3073,1 49135U 21082F   23185.45321458  .00000129  00000-0  18615-4 0  9993,2 49135  69.9985 203.4392 0004110 267.5540  92.5149 14.98330849100299,6950.19,96.107,574.912,569.199,0.0
49135.0,STARLINK-3073,PAYLOAD,2023-07-05 10:54:38,14.98330188,0.0004118,69.9988,200.9146,267.3602,92.7086,1.5828e-05,9.6e-07,0.0,0 STARLINK-3073,1 49135U 21082F   23186.45461467  .00000096  00000-0  15828-4 0  9995,2 49135  69.9988 200.9146 0004118 267.3602  92.7086 14.98330188100441,6950.192,96.107,574.919,569.195,0.0
49135.0,STARLINK-3073,PAYLOAD,2023-07-06 10:56:39,14.98332971,0.0004134,69.999,198.3896,267.2806,92.7879,4.1723e-05,4.05e-06,0.0,0 STARLINK-3073,1 49135U 21082F   23187.45601126  .00000405  00000-0  41723-4 0  9991,2 49135  69.9990 198.3896 0004134 267.2806  92.7879 14.98332971100597,6950.184,96.107,574.922,569.175,0.0
49135.0,STARLINK-3073,PAYLOAD,2023-07-07 17:23:12,14.98330318,0.0004105,69.9991,195.1916,266.9503,93.1187,1.139e-05,4.3e-07,0.0,0 STARLINK-3073,1 49135U 21082F   23188.72445258  .00000043  00000-0  11390-4 0  9999,2 49135  69.9991 195.1916 0004105 266.9503  93.1187 14.98330318100785,6950.192,96.107,574.91,569.204,0.0
49135.0,STARLINK-3073,PAYLOAD,2023-07-08 17:25:13,14.98333446,0.0004048,69.9993,192.6669,266.0965,93.9731,-5.8232e-05,-7.88e-06,0.0,0 STARLINK-3073,1 49135U 21082F   23189.72585190 -.00000788  00000-0 -58232-4 0  9994,2 49135  69.9993 192.6669 0004048 266.0965  93.9731 14.98333446100938,6950.182,96.107,574.861,569.234,0.0
49135.0,STARLINK-3073,PAYLOAD,2023-07-10 03:04:03,14.98328829,0.0004069,69.9991,189.1322,265.8793,94.1902,2.2486e-05,1.75e-06,0.0,0 STARLINK-3073,1 49135U 21082F   23191.12781295  .00000175  00000-0  22486-4 0  9995,2 49135  69.9991 189.1322 0004069 265.8793  94.1902 14.98328829101148,6950.197,96.107,574.89,569.233,0.0
49135.0,STARLINK-3073,PAYLOAD,2023-07-11 09:30:35,14.98332983,0.0004115,69.9991,185.9341,266.1855,93.8833,4.8173e-05,4.82e-06,0.0,0 STARLINK-3073,1 49135U 21082F   23192.39624929  .00000482  00000-0  48173-4 0  9997,2 49135  69.9991 185.9341 0004115 266.1855  93.8833 14.98332983101334,6950.184,96.107,574.909,569.189,0.0
49135.0,STARLINK-3073,PAYLOAD,2023-07-12 09:32:36,14.983346,0.0004062,69.9994,183.4092,265.782,94.2875,6.9378e-05,7.35e-06,0.0,0 STARLINK-3073,1 49135U 21082F   23193.39764597  .00000735  00000-0  69378-4 0  9995,2 49135  69.9994 183.4092 0004062 265.7820  94.2875 14.98334600101486,6950.179,96.107,574.867,569.221,0.0
49135.0,STARLINK-3073,PAYLOAD,2023-07-13 15:59:10,14.98329701,0.0003954,69.9996,180.2112,265.5589,94.5118,-1.4324e-05,-2.64e-06,0.0,0 STARLINK-3073,1 49135U 21082F   23194.66609039 -.00000264  00000-0 -14324-4 0  9995,2 49135  69.9996 180.2112 0003954 265.5589  94.5118 14.98329701101675,6950.194,96.107,574.807,569.311,0.0
49135.0,STARLINK-3073,PAYLOAD,2023-07-14 16:01:10,14.98332245,0.0003922,69.9996,177.6865,265.3042,94.767,2.8392e-05,2.46e-06,0.0,0 STARLINK-3073,1 49135U 21082F   23195.66748703  .00000246  00000-0  28392-4 0  9996,2 49135  69.9996 177.6865 0003922 265.3042  94.7670 14.98332245101826,6950.186,96.107,574.777,569.325,0.0
49135.0,STARLINK-3073,PAYLOAD,2023-07-15 16:03:12,14.98325604,0.00028,69.9996,175.162,268.5192,91.5646,-1.5402e-05,-2.77e-06,0.0,0 STARLINK-3073,1 49135U 21082F   23196.66889506 -.00000277  00000-0 -15402-4 0  9998,2 49135  69.9996 175.1620 0002800 268.5192  91.5646 14.98325604101978,6950.206,96.107,574.018,570.125,0.0
49135.0,STARLINK-3073,PAYLOAD,2023-07-16 16:05:13,14.98328411,0.0003888,69.9997,172.6375,265.714,94.3575,-8.9974e-06,-2e-06,0.0,0 STARLINK-3073,1 49135U 21082F   23197.67029110 -.00000200  00000-0 -89974-5 0  9999,2 49135  69.9997 172.6375 0003888 265.7140  94.3575 14.98328411102126,6950.198,96.107,574.765,569.361,0.0
49135.0,STARLINK-3073,PAYLOAD,2023-07-17 08:06:33,14.98335535,0.0003885,69.9996,170.9541,265.3008,94.7707,3.1029e-05,2.77e-06,0.0,0 STARLINK-3073,1 49135U 21082F   23198.33788491  .00000277  00000-0  31029-4 0  9996,2 49135  69.9996 170.9541 0003885 265.3008  94.7707 14.98335535102224,6950.176,96.107,574.741,569.341,0.0
49135.0,STARLINK-3073,PAYLOAD,2023-07-17 16:07:14,14.98297947,0.0003657,69.9996,170.1125,270.5384,89.5356,0.00067206,7.929e-05,0.0,0 STARLINK-3073,1 49135U 21082F   23198.67169623  .00007929  00000-0  67206-3 0  9999,2 49135  69.9996 170.1125 0003657 270.5384  89.5356 14.98297947102277,6950.292,96.109,574.699,569.615,0.0
49135.0,STARLINK-3073,PAYLOAD,2023-07-18 00:07:53,14.98329891,0.0003878,69.9996,169.2709,266.0109,94.0607,0.00011786,1.314e-05,0.0,0 STARLINK-3073,1 49135U 21082F   23199.00548524  .00001314  00000-0  11786-3 0  9992,2 49135  69.9996 169.2709 0003878 266.0109  94.0607 14.98329891102324,6950.193,96.107,574.754,569.363,0.0
49135.0,STARLINK-3073,PAYLOAD,2023-07-18 06:32:25,14.98335368,0.0003837,69.9996,168.5976,265.73,94.3421,0.00015956,1.812e-05,0.0,0 STARLINK-3073,1 49135U 21082F   23199.27252045  .00001812  00000-0  15956-3 0  9997,2 49135  69.9996 168.5976 0003837 265.7300  94.3421 14.98335368102363,6950.176,96.107,574.708,569.375,0.0
49135.0,STARLINK-3073,PAYLOAD,2023-07-19 08:10:35,14.98325975,0.0003587,70.0002,165.9042,264.2587,95.8163,4.0749e-05,3.93e-06,0.0,0 STARLINK-3073,1 49135U 21082F   23200.34068919  .00000393  00000-0  40749-4 0  9995,2 49135  70.0002 165.9042 0003587 264.2587  95.8163 14.98325975102522,6950.205,96.107,574.563,569.577,0.0
49135.0,STARLINK-3073,PAYLOAD,2023-07-21 08:14:36,14.98341282,0.0003529,70.0005,160.8559,263.3838,96.692,0.00016723,1.903e-05,0.0,0 STARLINK-3073,1 49135U 21082F   23202.34347337  .00001903  00000-0  16723-3 0  9993,2 49135  70.0005 160.8559 0003529 263.3838  96.6920 14.98341282102829,6950.158,96.106,574.476,569.57,0.0
49135.0,STARLINK-3073,PAYLOAD,2023-07-24 08:20:40,14.98325684,0.0003285,70.0011,153.2836,265.6599,94.4184,0.00012297,1.374e-05,0.0,0 STARLINK-3073,1 49135U 21082F   23205.34768620  .00001374  00000-0  12297-3 0  9992,2 49135  70.0011 153.2836 0003285 265.6599  94.4184 14.98325684103274,6950.206,96.107,574.354,569.788,0.0
49135.0,STARLINK-3073,PAYLOAD,2023-07-25 06:46:32,14.98331895,0.0003152,70.0012,150.926,268.6746,91.4052,2.9729e-05,2.62e-06,0.0,0 STARLINK-3073,1 49135U 21082F   23206.28232538  .00000262  00000-0  29729-4 0  9994,2 49135  70.0012 150.9260 0003152 268.6746  91.4052 14.98331895103418,6950.187,96.107,574.243,569.861,0.0
49135.0,STARLINK-3073,PAYLOAD,2023-07-26 03:36:17,14.98331426,0.0003105,70.0006,148.738,267.7388,92.3416,2.4994e-05,2.05e-06,0.0,0 STARLINK-3073,1 49135U 21082F   23207.15020598  .00000205  00000-0  24994-4 0  9998,2 49135  70.0006 148.7380 0003105 267.7388  92.3416 14.98331426103547,6950.188,96.107,574.212,569.895,0.0
